{
  "schema_version": 1,
  "source": "aviationweather.gov/api/data/metar",
  "station": "KDVT",
  "fetched_at_utc": "2026-04-28T11:45:06Z",
  "observed_at_utc": "2026-04-28T10:53:00Z",
  "temperature_c": 12.8,
  "dewpoint_c": -3.3,
  "wind_speed_kt": 3,
  "wind_direction_deg": 10,
  "visibility_mi": 10.0,
  "altimeter_in_hg": 29.95,
  "flight_category": "VFR",
  "raw_metar": "METAR KDVT 281053Z AUTO 01003KT 10SM CLR 13/M03 A2995 RMK AO2 SLP127 T01281033"
}
