{
  "schema_version": 1,
  "source": "aviationweather.gov/api/data/metar",
  "station": "KDVT",
  "fetched_at_utc": "2026-04-24T20:50:38Z",
  "observed_at_utc": "2026-04-24T19:53:00Z",
  "temperature_c": 28.3,
  "dewpoint_c": -5.6,
  "wind_speed_kt": 4,
  "wind_direction_deg": 220,
  "visibility_mi": 10.0,
  "altimeter_in_hg": 29.82,
  "flight_category": "VFR",
  "raw_metar": "METAR KDVT 241953Z 22004G15KT 10SM CLR 28/M06 A2982 RMK AO2 SLP077 T02831056"
}
