{
  "schema_version": 1,
  "source": "aviationweather.gov/api/data/metar",
  "station": "KDVT",
  "fetched_at_utc": "2026-04-19T23:37:34Z",
  "observed_at_utc": "2026-04-19T22:53:00Z",
  "temperature_c": 33.3,
  "dewpoint_c": -2.8,
  "wind_speed_kt": 4,
  "wind_direction_deg": null,
  "visibility_mi": 10.0,
  "altimeter_in_hg": 29.8,
  "flight_category": "VFR",
  "raw_metar": "METAR KDVT 192253Z COR VRB04KT 10SM CLR 33/M03 A2980 RMK AO2 SLP066 T03331028"
}
