{
  "schema_version": 1,
  "source": "aviationweather.gov/api/data/metar",
  "station": "KDVT",
  "fetched_at_utc": "2026-04-14T07:47:39Z",
  "observed_at_utc": "2026-04-14T06:53:00Z",
  "temperature_c": 18.9,
  "dewpoint_c": 2.2,
  "wind_speed_kt": 11,
  "wind_direction_deg": 280,
  "visibility_mi": 10.0,
  "altimeter_in_hg": 29.96,
  "flight_category": null,
  "raw_metar": "METAR KDVT 140653Z AUTO 28011KT 10SM 19/02 A2996 RMK AO2 SLP128 T01890022 402610144 $"
}
