{
  "schema_version": 1,
  "source": "aviationweather.gov/api/data/metar",
  "station": "KDVT",
  "fetched_at_utc": "2026-04-20T05:42:24Z",
  "observed_at_utc": "2026-04-20T04:53:00Z",
  "temperature_c": 27.2,
  "dewpoint_c": -3.9,
  "wind_speed_kt": 3,
  "wind_direction_deg": 230,
  "visibility_mi": 10.0,
  "altimeter_in_hg": 29.84,
  "flight_category": "VFR",
  "raw_metar": "METAR KDVT 200453Z AUTO 23003KT 10SM CLR 27/M04 A2984 RMK AO2 SLP082 T02721039"
}
