{
  "schema_version": 1,
  "source": "aviationweather.gov/api/data/metar",
  "station": "KDVT",
  "fetched_at_utc": "2026-04-16T23:41:19Z",
  "observed_at_utc": "2026-04-16T22:53:00Z",
  "temperature_c": 28.9,
  "dewpoint_c": -6.1,
  "wind_speed_kt": 8,
  "wind_direction_deg": 280,
  "visibility_mi": 10.0,
  "altimeter_in_hg": 29.8,
  "flight_category": "VFR",
  "raw_metar": "METAR KDVT 162253Z 28008KT 10SM CLR 29/M06 A2980 RMK AO2 SLP070 T02891061 $"
}
