{
  "schema_version": 1,
  "source": "aviationweather.gov/api/data/metar",
  "station": "KDVT",
  "fetched_at_utc": "2026-04-18T19:41:29Z",
  "observed_at_utc": "2026-04-18T18:53:00Z",
  "temperature_c": 28.9,
  "dewpoint_c": -8.3,
  "wind_speed_kt": 7,
  "wind_direction_deg": 80,
  "visibility_mi": 10.0,
  "altimeter_in_hg": 29.98,
  "flight_category": "VFR",
  "raw_metar": "METAR KDVT 181853Z 08007KT 10SM CLR 29/M08 A2998 RMK AO2 SLP133 T02891083"
}
