{
  "schema_version": 1,
  "source": "aviationweather.gov/api/data/metar",
  "station": "KDVT",
  "fetched_at_utc": "2026-04-11T11:30:54Z",
  "observed_at_utc": "2026-04-11T10:53:00Z",
  "temperature_c": 23.9,
  "dewpoint_c": 3.3,
  "wind_speed_kt": 3,
  "wind_direction_deg": 260,
  "visibility_mi": 10.0,
  "altimeter_in_hg": 29.89,
  "flight_category": "VFR",
  "raw_metar": "METAR KDVT 111053Z 26003KT 10SM -RA FEW060 BKN075 OVC090 24/03 A2989 RMK AO2 RAB30 SLP097 P0000 T02390033"
}
