{
  "schema_version": 1,
  "source": "aviationweather.gov/api/data/metar",
  "station": "KDVT",
  "fetched_at_utc": "2026-04-11T19:35:24Z",
  "observed_at_utc": "2026-04-11T18:53:00Z",
  "temperature_c": 28.9,
  "dewpoint_c": 3.9,
  "wind_speed_kt": 8,
  "wind_direction_deg": 210,
  "visibility_mi": 10.0,
  "altimeter_in_hg": 29.94,
  "flight_category": "VFR",
  "raw_metar": "METAR KDVT 111853Z 21008KT 10SM FEW110 29/04 A2994 RMK AO2 SLP116 T02890039 $"
}
