{
  "schema_version": 1,
  "source": "aviationweather.gov/api/data/metar",
  "station": "KDVT",
  "fetched_at_utc": "2026-04-14T05:24:45Z",
  "observed_at_utc": "2026-04-14T04:53:00Z",
  "temperature_c": 19.4,
  "dewpoint_c": 5.0,
  "wind_speed_kt": 13,
  "wind_direction_deg": 270,
  "visibility_mi": 10.0,
  "altimeter_in_hg": 29.92,
  "flight_category": null,
  "raw_metar": "METAR KDVT 140453Z AUTO 27013G22KT 10SM 19/05 A2992 RMK AO2 RAB09E21 SLP117 P0000 T01940050 $"
}
