{
  "schema_version": 1,
  "source": "aviationweather.gov/api/data/metar",
  "station": "KDVT",
  "fetched_at_utc": "2026-04-27T02:50:28Z",
  "observed_at_utc": "2026-04-27T01:53:00Z",
  "temperature_c": 21.7,
  "dewpoint_c": 0.0,
  "wind_speed_kt": 11,
  "wind_direction_deg": 230,
  "visibility_mi": 10.0,
  "altimeter_in_hg": 29.83,
  "flight_category": "VFR",
  "raw_metar": "METAR KDVT 270153Z 23011G20KT 10SM CLR 22/00 A2983 RMK AO2 SLP085 T02170000"
}
