{
  "schema_version": 1,
  "source": "aviationweather.gov/api/data/metar",
  "station": "KDVT",
  "fetched_at_utc": "2026-04-14T23:42:34Z",
  "observed_at_utc": "2026-04-14T22:53:00Z",
  "temperature_c": 24.4,
  "dewpoint_c": -2.8,
  "wind_speed_kt": 10,
  "wind_direction_deg": 240,
  "visibility_mi": 10.0,
  "altimeter_in_hg": 29.94,
  "flight_category": "VFR",
  "raw_metar": "METAR KDVT 142253Z 24010G16KT 10SM CLR 24/M03 A2994 RMK AO2 SLP122 T02441028"
}
