{
  "schema_version": 1,
  "source": "aviationweather.gov/api/data/metar",
  "station": "KDVT",
  "fetched_at_utc": "2026-04-15T18:05:40Z",
  "observed_at_utc": "2026-04-15T17:53:00Z",
  "temperature_c": 23.9,
  "dewpoint_c": -1.7,
  "wind_speed_kt": 0,
  "wind_direction_deg": 0,
  "visibility_mi": 10.0,
  "altimeter_in_hg": 30.01,
  "flight_category": "VFR",
  "raw_metar": "METAR KDVT 151753Z 00000KT 10SM CLR 24/M02 A3001 RMK AO2 SLP146 T02391017 10239 20122 50001"
}
