{
  "schema_version": 1,
  "source": "aviationweather.gov/api/data/metar",
  "station": "KDVT",
  "fetched_at_utc": "2026-04-22T02:37:41Z",
  "observed_at_utc": "2026-04-22T01:53:00Z",
  "temperature_c": 30.6,
  "dewpoint_c": -7.8,
  "wind_speed_kt": 16,
  "wind_direction_deg": 260,
  "visibility_mi": 9.0,
  "altimeter_in_hg": 29.85,
  "flight_category": "VFR",
  "raw_metar": "METAR KDVT 220153Z 26016G22KT 9SM CLR 31/M08 A2985 RMK AO2 SLP088 T03061078"
}
