{
  "schema_version": 1,
  "source": "aviationweather.gov/api/data/metar",
  "station": "KDVT",
  "fetched_at_utc": "2026-04-19T18:53:05Z",
  "observed_at_utc": "2026-04-19T17:53:00Z",
  "temperature_c": 30.0,
  "dewpoint_c": -3.9,
  "wind_speed_kt": 7,
  "wind_direction_deg": 140,
  "visibility_mi": 10.0,
  "altimeter_in_hg": 29.91,
  "flight_category": "VFR",
  "raw_metar": "METAR KDVT 191753Z 14007KT 100V170 10SM CLR 30/M04 A2991 RMK AO2 SLP106 T03001039 10300 20217 58003"
}
