{
  "schema_version": 1,
  "source": "aviationweather.gov/api/data/metar",
  "station": "KDVT",
  "fetched_at_utc": "2026-04-12T23:35:51Z",
  "observed_at_utc": "2026-04-12T22:53:00Z",
  "temperature_c": 25.6,
  "dewpoint_c": 3.3,
  "wind_speed_kt": 12,
  "wind_direction_deg": 250,
  "visibility_mi": 10.0,
  "altimeter_in_hg": 29.9,
  "flight_category": null,
  "raw_metar": "METAR KDVT 122253Z 25012G18KT 10SM 26/03 A2990 RMK AO2 SLP108 T02560033 $"
}
