{
  "schema_version": 1,
  "source": "aviationweather.gov/api/data/metar",
  "station": "KDVT",
  "fetched_at_utc": "2026-04-25T14:42:07Z",
  "observed_at_utc": "2026-04-25T13:53:00Z",
  "temperature_c": 20.6,
  "dewpoint_c": 0.0,
  "wind_speed_kt": 3,
  "wind_direction_deg": 100,
  "visibility_mi": 10.0,
  "altimeter_in_hg": 29.81,
  "flight_category": "VFR",
  "raw_metar": "METAR KDVT 251353Z 10003KT 10SM CLR 21/00 A2981 RMK AO2 SLP073 T02060000"
}
