{
  "schema_version": 1,
  "source": "aviationweather.gov/api/data/metar",
  "station": "KDVT",
  "fetched_at_utc": "2026-04-18T16:41:56Z",
  "observed_at_utc": "2026-04-18T15:53:00Z",
  "temperature_c": 23.9,
  "dewpoint_c": -11.7,
  "wind_speed_kt": 6,
  "wind_direction_deg": 60,
  "visibility_mi": 10.0,
  "altimeter_in_hg": 30.0,
  "flight_category": "VFR",
  "raw_metar": "METAR KDVT 181553Z COR 06006KT 10SM CLR 24/M12 A3000 RMK AO2 SLP140 T02391117"
}
