{
  "schema_version": 1,
  "source": "aviationweather.gov/api/data/metar",
  "station": "KDVT",
  "fetched_at_utc": "2026-04-17T10:57:02Z",
  "observed_at_utc": "2026-04-17T10:53:00Z",
  "temperature_c": 14.4,
  "dewpoint_c": -3.3,
  "wind_speed_kt": 3,
  "wind_direction_deg": 120,
  "visibility_mi": 10.0,
  "altimeter_in_hg": 29.83,
  "flight_category": "VFR",
  "raw_metar": "METAR KDVT 171053Z AUTO 12003KT 10SM CLR 14/M03 A2983 RMK AO2 SLP081 T01441033 $"
}
