{
  "schema_version": 1,
  "source": "aviationweather.gov/api/data/metar",
  "station": "KDVT",
  "fetched_at_utc": "2026-04-25T18:54:27Z",
  "observed_at_utc": "2026-04-25T17:53:00Z",
  "temperature_c": 24.4,
  "dewpoint_c": 1.1,
  "wind_speed_kt": 6,
  "wind_direction_deg": null,
  "visibility_mi": 10.0,
  "altimeter_in_hg": 29.84,
  "flight_category": "VFR",
  "raw_metar": "METAR KDVT 251753Z COR VRB06KT 10SM CLR 24/01 A2984 RMK AO2 SLP084 T02440011 10244 20183 53007"
}
