{
  "schema_version": 1,
  "source": "aviationweather.gov/api/data/metar",
  "station": "KDVT",
  "fetched_at_utc": "2026-04-24T19:52:44Z",
  "observed_at_utc": "2026-04-24T18:53:00Z",
  "temperature_c": 27.8,
  "dewpoint_c": -4.4,
  "wind_speed_kt": 7,
  "wind_direction_deg": 150,
  "visibility_mi": 10.0,
  "altimeter_in_hg": 29.85,
  "flight_category": "VFR",
  "raw_metar": "METAR KDVT 241853Z COR 15007G15KT 10SM CLR 28/M04 A2985 RMK AO2 SLP086 T02781044"
}
