{
  "schema_version": 1,
  "source": "aviationweather.gov/api/data/metar",
  "station": "KDVT",
  "fetched_at_utc": "2026-04-11T13:00:16Z",
  "observed_at_utc": "2026-04-11T12:53:00Z",
  "temperature_c": 21.7,
  "dewpoint_c": 6.1,
  "wind_speed_kt": 6,
  "wind_direction_deg": 90,
  "visibility_mi": 10.0,
  "altimeter_in_hg": 29.91,
  "flight_category": "VFR",
  "raw_metar": "METAR KDVT 111253Z 09006G14KT 10SM FEW055 SCT110 22/06 A2991 RMK AO2 RAB1159E46 SLP106 P0000 T02170061 $"
}
