{
  "schema_version": 1,
  "source": "aviationweather.gov/api/data/metar",
  "station": "KDVT",
  "fetched_at_utc": "2026-04-12T22:35:52Z",
  "observed_at_utc": "2026-04-12T21:53:00Z",
  "temperature_c": 26.1,
  "dewpoint_c": 2.2,
  "wind_speed_kt": 11,
  "wind_direction_deg": 230,
  "visibility_mi": 10.0,
  "altimeter_in_hg": 29.91,
  "flight_category": null,
  "raw_metar": "METAR KDVT 122153Z 23011KT 10SM 26/02 A2991 RMK AO2 SLP110 T02610022 $"
}
