{
  "schema_version": 1,
  "source": "aviationweather.gov/api/data/metar",
  "station": "KDVT",
  "fetched_at_utc": "2026-04-11T17:32:16Z",
  "observed_at_utc": "2026-04-11T16:53:00Z",
  "temperature_c": 26.1,
  "dewpoint_c": 5.0,
  "wind_speed_kt": 6,
  "wind_direction_deg": 170,
  "visibility_mi": 10.0,
  "altimeter_in_hg": 29.97,
  "flight_category": "VFR",
  "raw_metar": "METAR KDVT 111653Z COR 17006KT 10SM CLR 26/05 A2997 RMK AO2 SLP126 T02610050 $"
}
