{
  "schema_version": 1,
  "source": "aviationweather.gov/api/data/metar",
  "station": "KDVT",
  "fetched_at_utc": "2026-04-25T02:31:07Z",
  "observed_at_utc": "2026-04-25T01:53:00Z",
  "temperature_c": 28.3,
  "dewpoint_c": -5.6,
  "wind_speed_kt": 9,
  "wind_direction_deg": 270,
  "visibility_mi": 10.0,
  "altimeter_in_hg": 29.71,
  "flight_category": "VFR",
  "raw_metar": "METAR KDVT 250153Z 27009KT 10SM CLR 28/M06 A2971 RMK AO2 SLP042 T02831056"
}
