{
  "schema_version": 1,
  "source": "aviationweather.gov/api/data/metar",
  "station": "KDVT",
  "fetched_at_utc": "2026-04-17T23:39:48Z",
  "observed_at_utc": "2026-04-17T22:53:00Z",
  "temperature_c": 28.3,
  "dewpoint_c": -1.7,
  "wind_speed_kt": 8,
  "wind_direction_deg": 250,
  "visibility_mi": 10.0,
  "altimeter_in_hg": 29.85,
  "flight_category": "VFR",
  "raw_metar": "METAR KDVT 172253Z 25008G17KT 10SM CLR 28/M02 A2985 RMK AO2 SLP089 T02831017"
}
