{
  "schema_version": 1,
  "source": "aviationweather.gov/api/data/metar",
  "station": "KDVT",
  "fetched_at_utc": "2026-04-28T23:02:58Z",
  "observed_at_utc": "2026-04-28T22:53:00Z",
  "temperature_c": 27.8,
  "dewpoint_c": -3.9,
  "wind_speed_kt": 6,
  "wind_direction_deg": 260,
  "visibility_mi": 10.0,
  "altimeter_in_hg": 29.93,
  "flight_category": "VFR",
  "raw_metar": "METAR KDVT 282253Z 26006G15KT 10SM CLR 28/M04 A2993 RMK AO2 SLP119 T02781039"
}
