{
  "schema_version": 1,
  "source": "aviationweather.gov/api/data/metar",
  "station": "KDVT",
  "fetched_at_utc": "2026-04-26T20:39:07Z",
  "observed_at_utc": "2026-04-26T19:53:00Z",
  "temperature_c": 22.8,
  "dewpoint_c": 2.2,
  "wind_speed_kt": 17,
  "wind_direction_deg": 220,
  "visibility_mi": 10.0,
  "altimeter_in_hg": 29.84,
  "flight_category": "VFR",
  "raw_metar": "METAR KDVT 261953Z 22017G24KT 10SM CLR 23/02 A2984 RMK AO2 PK WND 26028/1937 SLP086 T02280022"
}
