{
  "schema_version": 1,
  "source": "aviationweather.gov/api/data/metar",
  "station": "KDVT",
  "fetched_at_utc": "2026-04-28T18:18:00Z",
  "observed_at_utc": "2026-04-28T17:53:00Z",
  "temperature_c": 23.3,
  "dewpoint_c": -2.2,
  "wind_speed_kt": 6,
  "wind_direction_deg": 180,
  "visibility_mi": 10.0,
  "altimeter_in_hg": 30.03,
  "flight_category": "VFR",
  "raw_metar": "METAR KDVT 281753Z 18006KT 10SM CLR 23/M02 A3003 RMK AO2 SLP150 T02331022 10233 20117 50002"
}
