{
  "schema_version": 1,
  "source": "aviationweather.gov/api/data/metar",
  "station": "KDVT",
  "fetched_at_utc": "2026-04-25T10:44:20Z",
  "observed_at_utc": "2026-04-25T09:53:00Z",
  "temperature_c": 20.6,
  "dewpoint_c": -1.7,
  "wind_speed_kt": 6,
  "wind_direction_deg": 220,
  "visibility_mi": 10.0,
  "altimeter_in_hg": 29.76,
  "flight_category": "VFR",
  "raw_metar": "METAR KDVT 250953Z 22006KT 10SM CLR 21/M02 A2976 RMK AO2 SLP055 T02061017"
}
