{
  "schema_version": 1,
  "source": "aviationweather.gov/api/data/metar",
  "station": "KDVT",
  "fetched_at_utc": "2026-04-26T09:01:51Z",
  "observed_at_utc": "2026-04-26T08:53:00Z",
  "temperature_c": 21.1,
  "dewpoint_c": 3.3,
  "wind_speed_kt": 12,
  "wind_direction_deg": 250,
  "visibility_mi": 10.0,
  "altimeter_in_hg": 29.73,
  "flight_category": "VFR",
  "raw_metar": "METAR KDVT 260853Z AUTO 25012G22KT 10SM CLR 21/03 A2973 RMK AO2 SLP046 60000 T02110033 58001"
}
