{
  "schema_version": 1,
  "source": "aviationweather.gov/api/data/metar",
  "station": "KDVT",
  "fetched_at_utc": "2026-04-20T02:45:52Z",
  "observed_at_utc": "2026-04-20T01:53:00Z",
  "temperature_c": 32.2,
  "dewpoint_c": -2.8,
  "wind_speed_kt": 5,
  "wind_direction_deg": 100,
  "visibility_mi": 10.0,
  "altimeter_in_hg": 29.78,
  "flight_category": "VFR",
  "raw_metar": "METAR KDVT 200153Z 10005KT 10SM CLR 32/M03 A2978 RMK AO2 SLP059 T03221028"
}
