{
  "schema_version": 1,
  "source": "aviationweather.gov/api/data/metar",
  "station": "KDVT",
  "fetched_at_utc": "2026-04-16T15:26:55Z",
  "observed_at_utc": "2026-04-16T14:53:00Z",
  "temperature_c": 18.9,
  "dewpoint_c": -3.3,
  "wind_speed_kt": 3,
  "wind_direction_deg": 100,
  "visibility_mi": 10.0,
  "altimeter_in_hg": 29.91,
  "flight_category": "VFR",
  "raw_metar": "METAR KDVT 161453Z AUTO 10003KT 10SM CLR 19/M03 A2991 RMK AO2 SLP110 T01891033 53014"
}
