{
  "schema_version": 1,
  "source": "aviationweather.gov/api/data/metar",
  "station": "KDVT",
  "fetched_at_utc": "2026-04-28T06:11:18Z",
  "observed_at_utc": "2026-04-28T05:53:00Z",
  "temperature_c": 20.0,
  "dewpoint_c": -2.2,
  "wind_speed_kt": 8,
  "wind_direction_deg": 300,
  "visibility_mi": 10.0,
  "altimeter_in_hg": 29.94,
  "flight_category": "VFR",
  "raw_metar": "METAR KDVT 280553Z AUTO 30008KT 10SM CLR 20/M02 A2994 RMK AO2 SLP121 T02001022 10256 20200 51020"
}
