{
  "schema_version": 1,
  "source": "aviationweather.gov/api/data/metar",
  "station": "KDVT",
  "fetched_at_utc": "2026-04-14T13:28:34Z",
  "observed_at_utc": "2026-04-14T12:53:00Z",
  "temperature_c": 12.8,
  "dewpoint_c": 1.7,
  "wind_speed_kt": 0,
  "wind_direction_deg": 0,
  "visibility_mi": 10.0,
  "altimeter_in_hg": 29.98,
  "flight_category": null,
  "raw_metar": "METAR KDVT 141253Z AUTO 00000KT 10SM 13/02 A2998 RMK AO2 SLP138 T01280017 $"
}
