{
  "schema_version": 1,
  "source": "aviationweather.gov/api/data/metar",
  "station": "KDVT",
  "fetched_at_utc": "2026-04-23T02:41:42Z",
  "observed_at_utc": "2026-04-23T01:53:00Z",
  "temperature_c": 26.7,
  "dewpoint_c": -3.9,
  "wind_speed_kt": 8,
  "wind_direction_deg": 230,
  "visibility_mi": 10.0,
  "altimeter_in_hg": 29.84,
  "flight_category": "VFR",
  "raw_metar": "METAR KDVT 230153Z 23008KT 10SM CLR 27/M04 A2984 RMK AO2 SLP087 T02671039"
}
