{
  "schema_version": 1,
  "source": "aviationweather.gov/api/data/metar",
  "station": "KDVT",
  "fetched_at_utc": "2026-04-23T09:45:14Z",
  "observed_at_utc": "2026-04-23T08:53:00Z",
  "temperature_c": 18.3,
  "dewpoint_c": -1.1,
  "wind_speed_kt": 0,
  "wind_direction_deg": 0,
  "visibility_mi": 10.0,
  "altimeter_in_hg": 29.87,
  "flight_category": "VFR",
  "raw_metar": "METAR KDVT 230853Z AUTO 00000KT 10SM CLR 18/M01 A2987 RMK AO2 SLP095 T01831011 58001"
}
