{
  "schema_version": 1,
  "source": "aviationweather.gov/api/data/metar",
  "station": "KDVT",
  "fetched_at_utc": "2026-04-15T05:25:03Z",
  "observed_at_utc": "2026-04-15T04:53:00Z",
  "temperature_c": 19.4,
  "dewpoint_c": -1.7,
  "wind_speed_kt": 3,
  "wind_direction_deg": 270,
  "visibility_mi": 10.0,
  "altimeter_in_hg": 29.97,
  "flight_category": "VFR",
  "raw_metar": "METAR KDVT 150453Z 27003KT 10SM CLR 19/M02 A2997 RMK AO2 SLP132 T01941017"
}
