{
  "schema_version": 1,
  "source": "aviationweather.gov/api/data/metar",
  "station": "KDVT",
  "fetched_at_utc": "2026-04-26T05:40:28Z",
  "observed_at_utc": "2026-04-26T04:53:00Z",
  "temperature_c": 24.4,
  "dewpoint_c": -0.6,
  "wind_speed_kt": 5,
  "wind_direction_deg": 240,
  "visibility_mi": 10.0,
  "altimeter_in_hg": 29.73,
  "flight_category": "VFR",
  "raw_metar": "METAR KDVT 260453Z AUTO 24005KT 10SM BKN110 24/M01 A2973 RMK AO2 SLP048 T02441006"
}
