{
  "schema_version": 1,
  "source": "aviationweather.gov/api/data/metar",
  "station": "KDVT",
  "fetched_at_utc": "2026-04-18T14:40:26Z",
  "observed_at_utc": "2026-04-18T13:53:00Z",
  "temperature_c": 17.2,
  "dewpoint_c": -11.1,
  "wind_speed_kt": 4,
  "wind_direction_deg": 30,
  "visibility_mi": 10.0,
  "altimeter_in_hg": 29.97,
  "flight_category": "VFR",
  "raw_metar": "METAR KDVT 181353Z 03004KT 10SM CLR 17/M11 A2997 RMK AO2 SLP131 T01721111"
}
