{
  "schema_version": 1,
  "source": "aviationweather.gov/api/data/metar",
  "station": "KDVT",
  "fetched_at_utc": "2026-04-10T18:54:51Z",
  "observed_at_utc": "2026-04-10T17:53:00Z",
  "temperature_c": 27.8,
  "dewpoint_c": 1.1,
  "wind_speed_kt": 4,
  "wind_direction_deg": null,
  "visibility_mi": 10.0,
  "altimeter_in_hg": 29.95,
  "flight_category": "VFR",
  "raw_metar": "METAR KDVT 101753Z VRB04KT 10SM CLR 28/01 A2995 RMK AO2 SLP119 T02780011 10278 20167 51007"
}
