{
  "schema_version": 1,
  "source": "aviationweather.gov/api/data/metar",
  "station": "KDVT",
  "fetched_at_utc": "2026-04-11T23:35:49Z",
  "observed_at_utc": "2026-04-11T22:53:00Z",
  "temperature_c": 31.1,
  "dewpoint_c": 1.7,
  "wind_speed_kt": 16,
  "wind_direction_deg": 260,
  "visibility_mi": 10.0,
  "altimeter_in_hg": 29.84,
  "flight_category": null,
  "raw_metar": "METAR KDVT 112253Z AUTO 26016G22KT 10SM 31/02 A2984 RMK AO2 SLP079 T03110017 $"
}
