{
  "schema_version": 1,
  "source": "aviationweather.gov/api/data/metar",
  "station": "KDVT",
  "fetched_at_utc": "2026-04-28T16:52:02Z",
  "observed_at_utc": "2026-04-28T15:53:00Z",
  "temperature_c": 20.6,
  "dewpoint_c": -1.1,
  "wind_speed_kt": 6,
  "wind_direction_deg": 210,
  "visibility_mi": 10.0,
  "altimeter_in_hg": 30.03,
  "flight_category": "VFR",
  "raw_metar": "METAR KDVT 281553Z 21006KT 10SM CLR 21/M01 A3003 RMK AO2 SLP153 T02061011"
}
