{
  "schema_version": 1,
  "source": "aviationweather.gov/api/data/metar",
  "station": "KDVT",
  "fetched_at_utc": "2026-04-13T22:44:15Z",
  "observed_at_utc": "2026-04-13T21:53:00Z",
  "temperature_c": 23.9,
  "dewpoint_c": 4.4,
  "wind_speed_kt": 11,
  "wind_direction_deg": 230,
  "visibility_mi": 10.0,
  "altimeter_in_hg": 29.91,
  "flight_category": null,
  "raw_metar": "METAR KDVT 132153Z 23011G17KT 10SM 24/04 A2991 RMK AO2 SLP111 T02390044 $"
}
