{
  "schema_version": 1,
  "source": "aviationweather.gov/api/data/metar",
  "station": "KDVT",
  "fetched_at_utc": "2026-04-16T02:43:22Z",
  "observed_at_utc": "2026-04-16T01:53:00Z",
  "temperature_c": 26.1,
  "dewpoint_c": -5.0,
  "wind_speed_kt": 6,
  "wind_direction_deg": 230,
  "visibility_mi": 10.0,
  "altimeter_in_hg": 29.88,
  "flight_category": "VFR",
  "raw_metar": "METAR KDVT 160153Z 23006KT 10SM CLR 26/M05 A2988 RMK AO2 SLP100 T02611050"
}
