{
  "schema_version": 1,
  "source": "aviationweather.gov/api/data/metar",
  "station": "KDVT",
  "fetched_at_utc": "2026-04-21T05:28:00Z",
  "observed_at_utc": "2026-04-21T04:53:00Z",
  "temperature_c": 26.7,
  "dewpoint_c": -1.1,
  "wind_speed_kt": 6,
  "wind_direction_deg": 230,
  "visibility_mi": 10.0,
  "altimeter_in_hg": 29.91,
  "flight_category": "VFR",
  "raw_metar": "METAR KDVT 210453Z AUTO 23006KT 10SM CLR 27/M01 A2991 RMK AO2 SLP106 T02671011"
}
