{
  "schema_version": 1,
  "source": "aviationweather.gov/api/data/metar",
  "station": "KDVT",
  "fetched_at_utc": "2026-04-20T22:43:29Z",
  "observed_at_utc": "2026-04-20T21:53:00Z",
  "temperature_c": 33.3,
  "dewpoint_c": -1.1,
  "wind_speed_kt": 6,
  "wind_direction_deg": null,
  "visibility_mi": 10.0,
  "altimeter_in_hg": 29.89,
  "flight_category": "VFR",
  "raw_metar": "METAR KDVT 202153Z VRB06KT 10SM CLR 33/M01 A2989 RMK AO2 SLP097 T03331011"
}
