{
  "schema_version": 1,
  "source": "aviationweather.gov/api/data/metar",
  "station": "KDVT",
  "fetched_at_utc": "2026-04-26T18:56:13Z",
  "observed_at_utc": "2026-04-26T18:53:00Z",
  "temperature_c": 22.2,
  "dewpoint_c": 1.7,
  "wind_speed_kt": 16,
  "wind_direction_deg": 240,
  "visibility_mi": 10.0,
  "altimeter_in_hg": 29.86,
  "flight_category": "VFR",
  "raw_metar": "METAR KDVT 261853Z 24016G25KT 10SM FEW070 22/02 A2986 RMK AO2 SLP090 T02220017"
}
