{
  "schema_version": 1,
  "source": "aviationweather.gov/api/data/metar",
  "station": "KDVT",
  "fetched_at_utc": "2026-04-15T12:02:20Z",
  "observed_at_utc": "2026-04-15T11:53:00Z",
  "temperature_c": 14.4,
  "dewpoint_c": -1.7,
  "wind_speed_kt": 5,
  "wind_direction_deg": 30,
  "visibility_mi": 10.0,
  "altimeter_in_hg": 29.97,
  "flight_category": "VFR",
  "raw_metar": "METAR KDVT 151153Z 03005KT 10SM CLR 14/M02 A2997 RMK AO2 SLP132 T01441017 10178 20139 55000"
}
