{
  "schema_version": 1,
  "source": "aviationweather.gov/api/data/metar",
  "station": "KDVT",
  "fetched_at_utc": "2026-04-25T07:18:06Z",
  "observed_at_utc": "2026-04-25T06:53:00Z",
  "temperature_c": 23.9,
  "dewpoint_c": 0.6,
  "wind_speed_kt": 7,
  "wind_direction_deg": 250,
  "visibility_mi": 10.0,
  "altimeter_in_hg": 29.76,
  "flight_category": "VFR",
  "raw_metar": "METAR KDVT 250653Z 25007KT 10SM CLR 24/01 A2976 RMK AO2 SLP053 T02390006 403060139"
}
