{
  "schema_version": 1,
  "source": "aviationweather.gov/api/data/metar",
  "station": "KDVT",
  "fetched_at_utc": "2026-04-20T16:10:21Z",
  "observed_at_utc": "2026-04-20T15:53:00Z",
  "temperature_c": 26.7,
  "dewpoint_c": -2.8,
  "wind_speed_kt": 4,
  "wind_direction_deg": 290,
  "visibility_mi": 10.0,
  "altimeter_in_hg": 29.98,
  "flight_category": "VFR",
  "raw_metar": "METAR KDVT 201553Z 29004KT 10SM CLR 27/M03 A2998 RMK AO2 SLP129 T02671028"
}
