{
  "schema_version": 1,
  "source": "aviationweather.gov/api/data/metar",
  "station": "KDVT",
  "fetched_at_utc": "2026-04-18T09:50:18Z",
  "observed_at_utc": "2026-04-18T08:53:00Z",
  "temperature_c": 16.7,
  "dewpoint_c": -5.6,
  "wind_speed_kt": 8,
  "wind_direction_deg": 20,
  "visibility_mi": 10.0,
  "altimeter_in_hg": 29.92,
  "flight_category": "VFR",
  "raw_metar": "METAR KDVT 180853Z AUTO 02008KT 10SM CLR 17/M06 A2992 RMK AO2 SLP112 T01671056 51004"
}
