{
  "schema_version": 1,
  "source": "aviationweather.gov/api/data/metar",
  "station": "KDVT",
  "fetched_at_utc": "2026-04-21T02:39:09Z",
  "observed_at_utc": "2026-04-21T01:53:00Z",
  "temperature_c": 30.6,
  "dewpoint_c": -1.7,
  "wind_speed_kt": 10,
  "wind_direction_deg": 260,
  "visibility_mi": 10.0,
  "altimeter_in_hg": 29.86,
  "flight_category": "VFR",
  "raw_metar": "METAR KDVT 210153Z 26010KT 10SM CLR 31/M02 A2986 RMK AO2 SLP090 T03061017"
}
