{
  "schema_version": 1,
  "source": "aviationweather.gov/api/data/metar",
  "station": "KDVT",
  "fetched_at_utc": "2026-04-13T18:02:10Z",
  "observed_at_utc": "2026-04-13T17:53:00Z",
  "temperature_c": 21.7,
  "dewpoint_c": 7.2,
  "wind_speed_kt": 3,
  "wind_direction_deg": null,
  "visibility_mi": 10.0,
  "altimeter_in_hg": 29.98,
  "flight_category": null,
  "raw_metar": "METAR KDVT 131753Z VRB03KT 10SM 22/07 A2998 RMK AO2 SLP135 T02170072 10222 20144 50000 $"
}
