{
  "schema_version": 1,
  "source": "aviationweather.gov/api/data/metar",
  "station": "KDVT",
  "fetched_at_utc": "2026-04-26T11:39:30Z",
  "observed_at_utc": "2026-04-26T10:53:00Z",
  "temperature_c": 20.0,
  "dewpoint_c": 2.8,
  "wind_speed_kt": 10,
  "wind_direction_deg": 240,
  "visibility_mi": 10.0,
  "altimeter_in_hg": 29.73,
  "flight_category": "VFR",
  "raw_metar": "METAR KDVT 261053Z AUTO 24010KT 10SM CLR 20/03 A2973 RMK AO2 SLP046 T02000028"
}
