{
  "schema_version": 1,
  "source": "aviationweather.gov/api/data/metar",
  "station": "KDVT",
  "fetched_at_utc": "2026-04-16T17:15:45Z",
  "observed_at_utc": "2026-04-16T16:53:00Z",
  "temperature_c": 23.9,
  "dewpoint_c": -4.4,
  "wind_speed_kt": 6,
  "wind_direction_deg": 140,
  "visibility_mi": 10.0,
  "altimeter_in_hg": 29.91,
  "flight_category": "VFR",
  "raw_metar": "METAR KDVT 161653Z AUTO 14006KT 10SM CLR 24/M04 A2991 RMK AO2 SLP109 T02391044"
}
