{
  "schema_version": 1,
  "source": "aviationweather.gov/api/data/metar",
  "station": "KDVT",
  "fetched_at_utc": "2026-04-14T11:03:45Z",
  "observed_at_utc": "2026-04-14T10:53:00Z",
  "temperature_c": 15.0,
  "dewpoint_c": 1.7,
  "wind_speed_kt": 0,
  "wind_direction_deg": 0,
  "visibility_mi": 8.0,
  "altimeter_in_hg": 29.97,
  "flight_category": null,
  "raw_metar": "METAR KDVT 141053Z AUTO 00000KT 8SM 15/02 A2997 RMK AO2 SLP131 T01500017 $"
}
