{
  "schema_version": 1,
  "source": "aviationweather.gov/api/data/metar",
  "station": "KDVT",
  "fetched_at_utc": "2026-04-19T17:35:58Z",
  "observed_at_utc": "2026-04-19T16:53:00Z",
  "temperature_c": 28.3,
  "dewpoint_c": -3.9,
  "wind_speed_kt": 10,
  "wind_direction_deg": 120,
  "visibility_mi": 10.0,
  "altimeter_in_hg": 29.91,
  "flight_category": "VFR",
  "raw_metar": "METAR KDVT 191653Z 12010G16KT 10SM CLR 28/M04 A2991 RMK AO2 SLP108 T02831039"
}
