{
  "schema_version": 1,
  "source": "aviationweather.gov/api/data/metar",
  "station": "KDVT",
  "fetched_at_utc": "2026-04-24T13:53:52Z",
  "observed_at_utc": "2026-04-24T12:53:00Z",
  "temperature_c": 17.2,
  "dewpoint_c": -2.8,
  "wind_speed_kt": 5,
  "wind_direction_deg": 100,
  "visibility_mi": 10.0,
  "altimeter_in_hg": 29.85,
  "flight_category": "VFR",
  "raw_metar": "METAR KDVT 241253Z AUTO 10005KT 10SM CLR 17/M03 A2985 RMK AO2 SLP087 T01721028"
}
