{
  "schema_version": 1,
  "source": "aviationweather.gov/api/data/metar",
  "station": "KDVT",
  "fetched_at_utc": "2026-04-21T21:46:08Z",
  "observed_at_utc": "2026-04-21T20:53:00Z",
  "temperature_c": 31.7,
  "dewpoint_c": -6.7,
  "wind_speed_kt": 8,
  "wind_direction_deg": 220,
  "visibility_mi": 9.0,
  "altimeter_in_hg": 29.93,
  "flight_category": "VFR",
  "raw_metar": "METAR KDVT 212053Z 22008G22KT 9SM CLR 32/M07 A2993 RMK AO2 SLP111 T03171067 57020"
}
