{
  "schema_version": 1,
  "source": "aviationweather.gov/api/data/metar",
  "station": "KDVT",
  "fetched_at_utc": "2026-04-26T10:45:45Z",
  "observed_at_utc": "2026-04-26T09:53:00Z",
  "temperature_c": 20.6,
  "dewpoint_c": 3.3,
  "wind_speed_kt": 11,
  "wind_direction_deg": 220,
  "visibility_mi": 10.0,
  "altimeter_in_hg": 29.72,
  "flight_category": "VFR",
  "raw_metar": "METAR KDVT 260953Z AUTO 22011KT 10SM BKN095 21/03 A2972 RMK AO2 SLP046 T02060033"
}
