{
  "schema_version": 1,
  "source": "aviationweather.gov/api/data/metar",
  "station": "KDVT",
  "fetched_at_utc": "2026-04-15T09:20:49Z",
  "observed_at_utc": "2026-04-15T08:53:00Z",
  "temperature_c": 13.9,
  "dewpoint_c": -2.2,
  "wind_speed_kt": 0,
  "wind_direction_deg": 0,
  "visibility_mi": 10.0,
  "altimeter_in_hg": 29.97,
  "flight_category": "VFR",
  "raw_metar": "METAR KDVT 150853Z 00000KT 10SM CLR 14/M02 A2997 RMK AO2 SLP133 T01391022 58001"
}
