{
  "schema_version": 1,
  "source": "aviationweather.gov/api/data/metar",
  "station": "KDVT",
  "fetched_at_utc": "2026-04-12T16:40:15Z",
  "observed_at_utc": "2026-04-12T15:53:00Z",
  "temperature_c": 22.8,
  "dewpoint_c": 2.8,
  "wind_speed_kt": 8,
  "wind_direction_deg": 160,
  "visibility_mi": 10.0,
  "altimeter_in_hg": 29.94,
  "flight_category": "VFR",
  "raw_metar": "METAR KDVT 121553Z COR 16008KT 10SM CLR 23/03 A2994 RMK AO2 SLP117 T02280028 $"
}
