{
  "schema_version": 1,
  "source": "aviationweather.gov/api/data/metar",
  "station": "KDVT",
  "fetched_at_utc": "2026-04-28T20:16:47Z",
  "observed_at_utc": "2026-04-28T19:53:00Z",
  "temperature_c": 25.6,
  "dewpoint_c": -3.9,
  "wind_speed_kt": 10,
  "wind_direction_deg": 230,
  "visibility_mi": 10.0,
  "altimeter_in_hg": 30.0,
  "flight_category": "VFR",
  "raw_metar": "METAR KDVT 281953Z 23010G16KT 10SM CLR 26/M04 A3000 RMK AO2 SLP140 T02561039"
}
