{
  "schema_version": 1,
  "source": "aviationweather.gov/api/data/metar",
  "station": "KDVT",
  "fetched_at_utc": "2026-04-22T09:21:27Z",
  "observed_at_utc": "2026-04-22T08:53:00Z",
  "temperature_c": 21.7,
  "dewpoint_c": -0.6,
  "wind_speed_kt": 0,
  "wind_direction_deg": 0,
  "visibility_mi": 10.0,
  "altimeter_in_hg": 29.96,
  "flight_category": "VFR",
  "raw_metar": "METAR KDVT 220853Z AUTO 00000KT 10SM CLR 22/M01 A2996 RMK AO2 SLP122 T02171006 51010"
}
