{
  "schema_version": 1,
  "source": "aviationweather.gov/api/data/metar",
  "station": "KDVT",
  "fetched_at_utc": "2026-04-17T02:38:20Z",
  "observed_at_utc": "2026-04-17T01:53:00Z",
  "temperature_c": 27.8,
  "dewpoint_c": -7.8,
  "wind_speed_kt": 8,
  "wind_direction_deg": 260,
  "visibility_mi": 10.0,
  "altimeter_in_hg": 29.75,
  "flight_category": "VFR",
  "raw_metar": "METAR KDVT 170153Z 26008KT 10SM CLR 28/M08 A2975 RMK AO2 SLP055 T02781078 $"
}
