{
  "schema_version": 1,
  "source": "aviationweather.gov/api/data/metar",
  "station": "KDVT",
  "fetched_at_utc": "2026-04-25T22:37:41Z",
  "observed_at_utc": "2026-04-25T21:53:00Z",
  "temperature_c": 25.6,
  "dewpoint_c": -0.6,
  "wind_speed_kt": 4,
  "wind_direction_deg": 250,
  "visibility_mi": 10.0,
  "altimeter_in_hg": 29.79,
  "flight_category": "VFR",
  "raw_metar": "METAR KDVT 252153Z 25004KT 10SM FEW120 26/M01 A2979 RMK AO2 SLP068 T02561006"
}
