{
  "schema_version": 1,
  "source": "aviationweather.gov/api/data/metar",
  "station": "KDVT",
  "fetched_at_utc": "2026-04-12T02:39:37Z",
  "observed_at_utc": "2026-04-12T01:53:00Z",
  "temperature_c": 27.8,
  "dewpoint_c": -1.1,
  "wind_speed_kt": 11,
  "wind_direction_deg": 260,
  "visibility_mi": 10.0,
  "altimeter_in_hg": 29.81,
  "flight_category": "VFR",
  "raw_metar": "METAR KDVT 120153Z 26011KT 10SM FEW100 28/M01 A2981 RMK AO2 SLP073 T02781011"
}
