{
  "schema_version": 1,
  "source": "aviationweather.gov/api/data/metar",
  "station": "KDVT",
  "fetched_at_utc": "2026-04-13T21:51:21Z",
  "observed_at_utc": "2026-04-13T20:53:00Z",
  "temperature_c": 23.9,
  "dewpoint_c": 4.4,
  "wind_speed_kt": 5,
  "wind_direction_deg": 280,
  "visibility_mi": 10.0,
  "altimeter_in_hg": 29.93,
  "flight_category": null,
  "raw_metar": "METAR KDVT 132053Z 28005G16KT 10SM 24/04 A2993 RMK AO2 SLP118 T02390044 58017 $"
}
