{
  "schema_version": 1,
  "source": "aviationweather.gov/api/data/metar",
  "station": "KDVT",
  "fetched_at_utc": "2026-04-26T02:47:36Z",
  "observed_at_utc": "2026-04-26T01:53:00Z",
  "temperature_c": 25.6,
  "dewpoint_c": -3.3,
  "wind_speed_kt": 6,
  "wind_direction_deg": 270,
  "visibility_mi": 10.0,
  "altimeter_in_hg": 29.73,
  "flight_category": "VFR",
  "raw_metar": "METAR KDVT 260153Z 27006KT 10SM CLR 26/M03 A2973 RMK AO2 SLP048 T02561033"
}
