{
  "schema_version": 1,
  "source": "aviationweather.gov/api/data/metar",
  "station": "KDVT",
  "fetched_at_utc": "2026-04-19T21:37:22Z",
  "observed_at_utc": "2026-04-19T20:53:00Z",
  "temperature_c": 33.3,
  "dewpoint_c": -3.3,
  "wind_speed_kt": 10,
  "wind_direction_deg": 150,
  "visibility_mi": 10.0,
  "altimeter_in_hg": 29.84,
  "flight_category": "VFR",
  "raw_metar": "METAR KDVT 192053Z 15010G19KT 10SM CLR 33/M03 A2984 RMK AO2 SLP083 T03331033 58022"
}
