{
  "schema_version": 1,
  "source": "aviationweather.gov/api/data/metar",
  "station": "KDVT",
  "fetched_at_utc": "2026-04-17T16:04:29Z",
  "observed_at_utc": "2026-04-17T15:53:00Z",
  "temperature_c": 21.7,
  "dewpoint_c": 1.1,
  "wind_speed_kt": 0,
  "wind_direction_deg": 0,
  "visibility_mi": 10.0,
  "altimeter_in_hg": 29.93,
  "flight_category": "VFR",
  "raw_metar": "METAR KDVT 171553Z 00000KT 10SM CLR 22/01 A2993 RMK AO2 SLP115 T02170011 $"
}
