{
  "schema_version": 1,
  "source": "aviationweather.gov/api/data/metar",
  "station": "KDVT",
  "fetched_at_utc": "2026-04-10T21:38:43Z",
  "observed_at_utc": "2026-04-10T20:53:00Z",
  "temperature_c": 30.6,
  "dewpoint_c": 1.1,
  "wind_speed_kt": 9,
  "wind_direction_deg": 230,
  "visibility_mi": 10.0,
  "altimeter_in_hg": 29.9,
  "flight_category": "VFR",
  "raw_metar": "METAR KDVT 102053Z 23009KT 10SM CLR 31/01 A2990 RMK AO2 SLP105 T03060011 58015"
}
