{
  "schema_version": 1,
  "source": "aviationweather.gov/api/data/metar",
  "station": "KDVT",
  "fetched_at_utc": "2026-04-16T07:48:22Z",
  "observed_at_utc": "2026-04-16T04:53:00Z",
  "temperature_c": 20.6,
  "dewpoint_c": -0.6,
  "wind_speed_kt": 0,
  "wind_direction_deg": 0,
  "visibility_mi": 10.0,
  "altimeter_in_hg": 29.92,
  "flight_category": "VFR",
  "raw_metar": "METAR KDVT 160453Z 00000KT 10SM CLR 21/M01 A2992 RMK AO2 SLP113 T02061006"
}
