{
  "schema_version": 1,
  "source": "aviationweather.gov/api/data/metar",
  "station": "KDVT",
  "fetched_at_utc": "2026-04-24T02:41:52Z",
  "observed_at_utc": "2026-04-24T01:53:00Z",
  "temperature_c": 26.7,
  "dewpoint_c": -4.4,
  "wind_speed_kt": 7,
  "wind_direction_deg": 230,
  "visibility_mi": 10.0,
  "altimeter_in_hg": 29.8,
  "flight_category": "VFR",
  "raw_metar": "METAR KDVT 240153Z 23007KT 10SM CLR 27/M04 A2980 RMK AO2 SLP072 T02671044"
}
