{
  "schema_version": 1,
  "source": "aviationweather.gov/api/data/metar",
  "station": "KDVT",
  "fetched_at_utc": "2026-04-24T11:57:26Z",
  "observed_at_utc": "2026-04-24T11:53:00Z",
  "temperature_c": 16.7,
  "dewpoint_c": -2.8,
  "wind_speed_kt": 6,
  "wind_direction_deg": 100,
  "visibility_mi": 10.0,
  "altimeter_in_hg": 29.83,
  "flight_category": "VFR",
  "raw_metar": "METAR KDVT 241153Z AUTO 10006KT 10SM CLR 17/M03 A2983 RMK AO2 SLP080 T01671028 10217 20139 58003"
}
