{
  "schema_version": 1,
  "source": "aviationweather.gov/api/data/metar",
  "station": "KDVT",
  "fetched_at_utc": "2026-04-11T22:33:41Z",
  "observed_at_utc": "2026-04-11T21:53:00Z",
  "temperature_c": 30.6,
  "dewpoint_c": 3.9,
  "wind_speed_kt": 7,
  "wind_direction_deg": 280,
  "visibility_mi": 10.0,
  "altimeter_in_hg": 29.85,
  "flight_category": "VFR",
  "raw_metar": "METAR KDVT 112153Z AUTO 28007G17KT 250V310 10SM FEW110 31/04 A2985 RMK AO2 SLP086 T03060039 $"
}
