{
  "schema_version": 1,
  "source": "aviationweather.gov/api/data/metar",
  "station": "KDVT",
  "fetched_at_utc": "2026-04-15T16:06:01Z",
  "observed_at_utc": "2026-04-15T15:53:00Z",
  "temperature_c": 20.6,
  "dewpoint_c": -1.7,
  "wind_speed_kt": 4,
  "wind_direction_deg": null,
  "visibility_mi": 10.0,
  "altimeter_in_hg": 30.02,
  "flight_category": "VFR",
  "raw_metar": "METAR KDVT 151553Z VRB04KT 10SM CLR 21/M02 A3002 RMK AO2 SLP149 T02061017"
}
