{
  "schema_version": 1,
  "source": "aviationweather.gov/api/data/metar",
  "station": "KDVT",
  "fetched_at_utc": "2026-04-25T16:41:57Z",
  "observed_at_utc": "2026-04-25T15:53:00Z",
  "temperature_c": 23.3,
  "dewpoint_c": 0.0,
  "wind_speed_kt": 7,
  "wind_direction_deg": 150,
  "visibility_mi": 10.0,
  "altimeter_in_hg": 29.82,
  "flight_category": "VFR",
  "raw_metar": "METAR KDVT 251553Z 15007KT 10SM CLR 23/00 A2982 RMK AO2 SLP077 T02330000"
}
