{
  "schema_version": 1,
  "source": "aviationweather.gov/api/data/metar",
  "station": "KDVT",
  "fetched_at_utc": "2026-04-13T20:05:44Z",
  "observed_at_utc": "2026-04-13T19:53:00Z",
  "temperature_c": 23.9,
  "dewpoint_c": 5.0,
  "wind_speed_kt": 4,
  "wind_direction_deg": null,
  "visibility_mi": 10.0,
  "altimeter_in_hg": 29.96,
  "flight_category": null,
  "raw_metar": "METAR KDVT 131953Z VRB04KT 10SM 24/05 A2996 RMK AO2 SLP127 T02390050 $"
}
