{
  "schema_version": 1,
  "source": "aviationweather.gov/api/data/metar",
  "station": "KDVT",
  "fetched_at_utc": "2026-04-21T15:13:49Z",
  "observed_at_utc": "2026-04-21T14:53:00Z",
  "temperature_c": 23.3,
  "dewpoint_c": 0.6,
  "wind_speed_kt": 4,
  "wind_direction_deg": 90,
  "visibility_mi": 10.0,
  "altimeter_in_hg": 29.98,
  "flight_category": "VFR",
  "raw_metar": "METAR KDVT 211453Z 09004KT 10SM CLR 23/01 A2998 RMK AO2 SLP131 T02330006 53014"
}
