{
  "schema_version": 1,
  "source": "aviationweather.gov/api/data/metar",
  "station": "KDVT",
  "fetched_at_utc": "2026-04-18T11:35:01Z",
  "observed_at_utc": "2026-04-18T10:53:00Z",
  "temperature_c": 16.1,
  "dewpoint_c": -8.9,
  "wind_speed_kt": 4,
  "wind_direction_deg": 50,
  "visibility_mi": 10.0,
  "altimeter_in_hg": 29.93,
  "flight_category": "VFR",
  "raw_metar": "METAR KDVT 181053Z AUTO 05004KT 10SM CLR 16/M09 A2993 RMK AO2 SLP118 T01611089"
}
