{
  "schema_version": 1,
  "source": "aviationweather.gov/api/data/metar",
  "station": "KDVT",
  "fetched_at_utc": "2026-04-11T07:50:12Z",
  "observed_at_utc": "2026-04-11T06:53:00Z",
  "temperature_c": 22.2,
  "dewpoint_c": 1.7,
  "wind_speed_kt": 0,
  "wind_direction_deg": 0,
  "visibility_mi": 10.0,
  "altimeter_in_hg": 29.86,
  "flight_category": "VFR",
  "raw_metar": "METAR KDVT 110653Z 00000KT 10SM CLR 22/02 A2986 RMK AO2 SLP090 T02220017 403170167"
}
