{
  "schema_version": 1,
  "source": "aviationweather.gov/api/data/metar",
  "station": "KDVT",
  "fetched_at_utc": "2026-04-15T22:41:53Z",
  "observed_at_utc": "2026-04-15T21:53:00Z",
  "temperature_c": 27.2,
  "dewpoint_c": -3.9,
  "wind_speed_kt": 0,
  "wind_direction_deg": 0,
  "visibility_mi": 10.0,
  "altimeter_in_hg": 29.93,
  "flight_category": "VFR",
  "raw_metar": "METAR KDVT 152153Z AUTO 00000KT 10SM CLR 27/M04 A2993 RMK AO2 SLP117 T02721039"
}
