{
  "schema_version": 1,
  "source": "aviationweather.gov/api/data/metar",
  "station": "KDVT",
  "fetched_at_utc": "2026-04-14T19:17:24Z",
  "observed_at_utc": "2026-04-14T18:53:00Z",
  "temperature_c": 22.2,
  "dewpoint_c": 0.0,
  "wind_speed_kt": 10,
  "wind_direction_deg": 250,
  "visibility_mi": 10.0,
  "altimeter_in_hg": 30.02,
  "flight_category": "VFR",
  "raw_metar": "METAR KDVT 141853Z 25010G14KT 10SM CLR 22/00 A3002 RMK AO2 SLP150 T02220000"
}
