{
  "schema_version": 1,
  "source": "aviationweather.gov/api/data/metar",
  "station": "KDVT",
  "fetched_at_utc": "2026-04-26T07:40:54Z",
  "observed_at_utc": "2026-04-26T06:53:00Z",
  "temperature_c": 22.8,
  "dewpoint_c": -6.7,
  "wind_speed_kt": 4,
  "wind_direction_deg": 240,
  "visibility_mi": 10.0,
  "altimeter_in_hg": 29.73,
  "flight_category": "VFR",
  "raw_metar": "METAR KDVT 260653Z 24004KT 10SM CLR 23/M07 A2973 RMK AO2 SLP047 T02281067 402720183"
}
