{
  "schema_version": 1,
  "source": "aviationweather.gov/api/data/metar",
  "station": "KDVT",
  "fetched_at_utc": "2026-04-25T11:38:51Z",
  "observed_at_utc": "2026-04-25T10:53:00Z",
  "temperature_c": 19.4,
  "dewpoint_c": -1.7,
  "wind_speed_kt": 0,
  "wind_direction_deg": 0,
  "visibility_mi": 10.0,
  "altimeter_in_hg": 29.77,
  "flight_category": "VFR",
  "raw_metar": "METAR KDVT 251053Z 00000KT 10SM CLR 19/M02 A2977 RMK AO2 SLP059 T01941017"
}
