{
  "schema_version": 1,
  "source": "aviationweather.gov/api/data/metar",
  "station": "KDVT",
  "fetched_at_utc": "2026-04-12T15:36:39Z",
  "observed_at_utc": "2026-04-12T14:53:00Z",
  "temperature_c": 21.1,
  "dewpoint_c": 1.1,
  "wind_speed_kt": 6,
  "wind_direction_deg": 150,
  "visibility_mi": 10.0,
  "altimeter_in_hg": 29.93,
  "flight_category": "VFR",
  "raw_metar": "METAR KDVT 121453Z 15006KT 10SM CLR 21/01 A2993 RMK AO2 SLP113 T02110011 53019 $"
}
