{
  "schema_version": 1,
  "source": "aviationweather.gov/api/data/metar",
  "station": "KDVT",
  "fetched_at_utc": "2026-04-14T02:37:32Z",
  "observed_at_utc": "2026-04-14T01:53:00Z",
  "temperature_c": 22.8,
  "dewpoint_c": 2.8,
  "wind_speed_kt": 13,
  "wind_direction_deg": 240,
  "visibility_mi": 10.0,
  "altimeter_in_hg": 29.84,
  "flight_category": null,
  "raw_metar": "METAR KDVT 140153Z 24013G23KT 10SM 23/03 A2984 RMK AO2 SLP089 T02280028 $"
}
