{
  "schema_version": 1,
  "source": "aviationweather.gov/api/data/metar",
  "station": "KDVT",
  "fetched_at_utc": "2026-04-23T22:45:15Z",
  "observed_at_utc": "2026-04-23T21:53:00Z",
  "temperature_c": 28.3,
  "dewpoint_c": -4.4,
  "wind_speed_kt": 12,
  "wind_direction_deg": 240,
  "visibility_mi": 10.0,
  "altimeter_in_hg": 29.84,
  "flight_category": "VFR",
  "raw_metar": "METAR KDVT 232153Z 24012KT 10SM CLR 28/M04 A2984 RMK AO2 SLP085 T02831044"
}
