{
  "schema_version": 1,
  "source": "aviationweather.gov/api/data/metar",
  "station": "KDVT",
  "fetched_at_utc": "2026-04-25T23:38:34Z",
  "observed_at_utc": "2026-04-25T22:53:00Z",
  "temperature_c": 26.1,
  "dewpoint_c": -0.6,
  "wind_speed_kt": 4,
  "wind_direction_deg": 200,
  "visibility_mi": 10.0,
  "altimeter_in_hg": 29.76,
  "flight_category": "VFR",
  "raw_metar": "METAR KDVT 252253Z 20004KT 10SM SCT120 26/M01 A2976 RMK AO2 SLP059 T02611006"
}
