{
  "schema_version": 1,
  "source": "aviationweather.gov/api/data/metar",
  "station": "KDVT",
  "fetched_at_utc": "2026-04-11T08:43:14Z",
  "observed_at_utc": "2026-04-11T07:53:00Z",
  "temperature_c": 21.1,
  "dewpoint_c": 1.7,
  "wind_speed_kt": 0,
  "wind_direction_deg": 0,
  "visibility_mi": 10.0,
  "altimeter_in_hg": 29.87,
  "flight_category": "VFR",
  "raw_metar": "METAR KDVT 110753Z 00000KT 10SM CLR 21/02 A2987 RMK AO2 SLP093 T02110017"
}
