{
  "schema_version": 1,
  "source": "aviationweather.gov/api/data/metar",
  "station": "KDVT",
  "fetched_at_utc": "2026-04-18T23:35:54Z",
  "observed_at_utc": "2026-04-18T22:53:00Z",
  "temperature_c": 31.7,
  "dewpoint_c": -9.4,
  "wind_speed_kt": 7,
  "wind_direction_deg": 350,
  "visibility_mi": 10.0,
  "altimeter_in_hg": 29.87,
  "flight_category": "VFR",
  "raw_metar": "METAR KDVT 182253Z 35007KT 10SM CLR 32/M09 A2987 RMK AO2 SLP093 T03171094"
}
