{
  "schema_version": 1,
  "source": "aviationweather.gov/api/data/metar",
  "station": "KDVT",
  "fetched_at_utc": "2026-04-20T10:49:00Z",
  "observed_at_utc": "2026-04-20T09:53:00Z",
  "temperature_c": 23.3,
  "dewpoint_c": -3.3,
  "wind_speed_kt": 5,
  "wind_direction_deg": 210,
  "visibility_mi": 10.0,
  "altimeter_in_hg": 29.9,
  "flight_category": "VFR",
  "raw_metar": "METAR KDVT 200953Z 21005KT 10SM CLR 23/M03 A2990 RMK AO2 SLP100 T02331033"
}
