{
  "schema_version": 1,
  "source": "aviationweather.gov/api/data/metar",
  "station": "KDVT",
  "fetched_at_utc": "2026-04-19T05:29:57Z",
  "observed_at_utc": "2026-04-19T04:53:00Z",
  "temperature_c": 23.3,
  "dewpoint_c": -9.4,
  "wind_speed_kt": 4,
  "wind_direction_deg": 30,
  "visibility_mi": 10.0,
  "altimeter_in_hg": 29.88,
  "flight_category": "VFR",
  "raw_metar": "METAR KDVT 190453Z AUTO 03004KT 10SM CLR 23/M09 A2988 RMK AO2 SLP098 T02331094"
}
